[{"OBJECT_NAME":"STARLINK-31997","OBJECT_ID":"2024-132L","EPOCH":"2026-03-09T08:29:51.951264","MEAN_MOTION":15.3018917,"ECCENTRICITY":0.00013541,"INCLINATION":53.161,"RA_OF_ASC_NODE":53.6553,"ARG_OF_PERICENTER":80.5679,"MEAN_ANOMALY":279.5475,"EPHEMERIS_TYPE":0,"CLASSIFICATION_TYPE":"U","NORAD_CAT_ID":60288,"ELEMENT_SET_NO":999,"REV_AT_EPOCH":9151,"BSTAR":-3.6062201e-5,"MEAN_MOTION_DOT":-1.427e-5,"MEAN_MOTION_DDOT":0},{"OBJECT_NAME":"OBJECT M","OBJECT_ID":"2025-155M","EPOCH":"2026-03-09T22:37:12.666144","MEAN_MOTION":15.33288683,"ECCENTRICITY":0.00088001,"INCLINATION":97.4429,"RA_OF_ASC_NODE":38.1052,"ARG_OF_PERICENTER":139.1253,"MEAN_ANOMALY":221.0651,"EPHEMERIS_TYPE":0,"CLASSIFICATION_TYPE":"U","NORAD_CAT_ID":64887,"ELEMENT_SET_NO":999,"REV_AT_EPOCH":6565,"BSTAR":0.00087834095,"MEAN_MOTION_DOT":0.00028279,"MEAN_MOTION_DDOT":0}]
